{"type":"FeatureCollection","features":[{"type":"Feature","id":"survey-seis-2019-01","geometry":{"type":"LineString","coordinates":[[119.86,24.28],[120.02,24.36],[120.15,24.5],[120.24,24.66]]},"properties":{"id":"survey-seis-2019-01","code":"SEIS-2D-2019-01","name":"臺西盆地北區二維震測 L-01","layer":"surveys","kind":"seismic_2d","status":"completed","publishStatus":"published","zoneId":"zone-tx-01","zoneName":"臺西盆地北區鹽水層","organization":"台灣中油探採研究所","startDate":"2019-03-05","lengthKm":86.4}},{"type":"Feature","id":"survey-seis-2019-02","geometry":{"type":"LineString","coordinates":[[119.9,24.55],[120.08,24.45],[120.26,24.32]]},"properties":{"id":"survey-seis-2019-02","code":"SEIS-2D-2019-02","name":"臺西盆地北區二維震測 L-02","layer":"surveys","kind":"seismic_2d","status":"completed","publishStatus":"published","zoneId":"zone-tx-01","zoneName":"臺西盆地北區鹽水層","organization":"台灣中油探採研究所","startDate":"2019-04-22","lengthKm":41.2}},{"type":"Feature","id":"survey-seis-2021-01","geometry":{"type":"Polygon","coordinates":[[[120.355,24.065],[120.45,24.06],[120.46,24.13],[120.37,24.145],[120.355,24.065]]]},"properties":{"id":"survey-seis-2021-01","code":"SEIS-3D-2021-01","name":"彰濱場址三維震測","layer":"surveys","kind":"seismic_3d","status":"completed","publishStatus":"published","zoneId":"zone-ch-01","zoneName":"彰濱鹽水層試驗場址","organization":"台灣電力公司","startDate":"2021-11-01","areaKm2":45}},{"type":"Feature","id":"survey-seis-2020-03","geometry":{"type":"LineString","coordinates":[[119.86,23.85],[120.02,23.95],[120.2,24.1]]},"properties":{"id":"survey-seis-2020-03","code":"SEIS-2D-2020-03","name":"臺西盆地中區二維震測 L-05","layer":"surveys","kind":"seismic_2d","status":"completed","publishStatus":"published","zoneId":"zone-tx-02","zoneName":"臺西盆地中區鹽水層","organization":"台灣中油探採研究所","startDate":"2020-09-10","lengthKm":62.8}},{"type":"Feature","id":"survey-seis-2022-01","geometry":{"type":"LineString","coordinates":[[120.3,24.23],[120.4,24.33],[120.48,24.44]]},"properties":{"id":"survey-seis-2022-01","code":"SEIS-2D-2022-01","name":"臺中港外海二維震測 L-11","layer":"surveys","kind":"seismic_2d","status":"completed","publishStatus":"published","zoneId":"zone-tc-01","zoneName":"臺中港外海鹽水層","organization":"地質調查及礦業管理中心","startDate":"2022-05-02","lengthKm":38.5}},{"type":"Feature","id":"survey-grav-2018-01","geometry":{"type":"Polygon","coordinates":[[[120.6,24.4],[120.95,24.4],[120.95,24.72],[120.6,24.72],[120.6,24.4]]]},"properties":{"id":"survey-grav-2018-01","code":"GRAV-2018-01","name":"苗栗地區重力探勘","layer":"surveys","kind":"gravity","status":"archived","publishStatus":"published","zoneId":"zone-ml-01","zoneName":"鐵砧山枯竭氣田","organization":"地質調查及礦業管理中心","startDate":"2018-02-01","areaKm2":320}},{"type":"Feature","id":"survey-mt-2023-01","geometry":{"type":"LineString","coordinates":[[120.64,24.455],[120.69,24.47],[120.735,24.49]]},"properties":{"id":"survey-mt-2023-01","code":"MT-2023-01","name":"鐵砧山大地電磁探勘","layer":"surveys","kind":"magnetotelluric","status":"completed","publishStatus":"published","zoneId":"zone-ml-01","zoneName":"鐵砧山枯竭氣田","organization":"國立中央大學地球科學系","startDate":"2023-09-01","lengthKm":12.5}},{"type":"Feature","id":"survey-geo-2020-01","geometry":{"type":"Polygon","coordinates":[[[120.3,24],[120.5,24],[120.5,24.2],[120.3,24.2],[120.3,24]]]},"properties":{"id":"survey-geo-2020-01","code":"GEO-2020-01","name":"彰化沿海地質調查填圖","layer":"surveys","kind":"geological_mapping","status":"completed","publishStatus":"published","zoneId":"zone-ch-01","zoneName":"彰濱鹽水層試驗場址","organization":"地質調查及礦業管理中心","startDate":"2020-03-01","areaKm2":180}},{"type":"Feature","id":"survey-geochem-2024-01","geometry":{"type":"Polygon","coordinates":[[[120.365,24.072],[120.44,24.068],[120.45,24.12],[120.38,24.14],[120.365,24.072]]]},"properties":{"id":"survey-geochem-2024-01","code":"GEOCHEM-2024-01","name":"彰濱場址土壤氣體基線調查","layer":"surveys","kind":"geochemical","status":"completed","publishStatus":"published","zoneId":"zone-ch-01","zoneName":"彰濱鹽水層試驗場址","organization":"國立成功大學資源工程學系","startDate":"2024-02-15","areaKm2":28}},{"type":"Feature","id":"survey-hydro-2022-01","geometry":{"type":"Polygon","coordinates":[[[120.32,24.02],[120.5,24.02],[120.5,24.18],[120.32,24.18],[120.32,24.02]]]},"properties":{"id":"survey-hydro-2022-01","code":"HYDRO-2022-01","name":"彰化沿海水文地質調查","layer":"surveys","kind":"hydrogeological","status":"completed","publishStatus":"published","zoneId":"zone-ch-01","zoneName":"彰濱鹽水層試驗場址","organization":"地質調查及礦業管理中心","startDate":"2022-04-01","areaKm2":150}},{"type":"Feature","id":"survey-seis-2017-05","geometry":{"type":"LineString","coordinates":[[119.92,22.78],[120.1,22.95],[120.24,23.15]]},"properties":{"id":"survey-seis-2017-05","code":"SEIS-2D-2017-05","name":"臺南盆地西南海域二維震測 L-21","layer":"surveys","kind":"seismic_2d","status":"archived","publishStatus":"published","zoneId":"zone-tn-01","zoneName":"臺南盆地西南海域鹽水層","organization":"台灣中油探採研究所","startDate":"2017-10-01","lengthKm":74}}]}