{"type":"FeatureCollection","features":[{"type":"Feature","id":"zone-tx-01","geometry":{"type":"Polygon","coordinates":[[[119.9,24.2],[120.18,24.15],[120.28,24.4],[120.22,24.7],[119.95,24.72],[119.82,24.45],[119.9,24.2]]]},"properties":{"id":"zone-tx-01","code":"TX-01","name":"臺西盆地北區鹽水層","layer":"zones","kind":"saline_aquifer","status":"potential","publishStatus":"published","setting":"offshore","region":"彰化外海","basin":"臺西盆地","capacityMtCo2":3200,"depthTopM":1800,"depthBottomM":2600,"reservoirFormation":"桂竹林層","caprockFormation":"錦水頁岩","areaKm2":1850}},{"type":"Feature","id":"zone-tx-02","geometry":{"type":"Polygon","coordinates":[[[119.88,23.8],[120.2,23.78],[120.26,24.12],[119.96,24.14],[119.84,23.98],[119.88,23.8]]]},"properties":{"id":"zone-tx-02","code":"TX-02","name":"臺西盆地中區鹽水層","layer":"zones","kind":"saline_aquifer","status":"assessing","publishStatus":"published","setting":"offshore","region":"雲林彰化外海","basin":"臺西盆地","capacityMtCo2":2100,"depthTopM":2100,"depthBottomM":2750,"reservoirFormation":"觀音山砂岩","caprockFormation":"打鹿頁岩","areaKm2":1320}},{"type":"Feature","id":"zone-ch-01","geometry":{"type":"Polygon","coordinates":[[[120.36,24.07],[120.44,24.06],[120.46,24.12],[120.4,24.15],[120.35,24.12],[120.36,24.07]]]},"properties":{"id":"zone-ch-01","code":"CH-01","name":"彰濱鹽水層試驗場址","layer":"zones","kind":"saline_aquifer","status":"pilot","publishStatus":"published","setting":"mixed","region":"彰化縣","basin":"臺西盆地","capacityMtCo2":85,"depthTopM":2350,"depthBottomM":3050,"reservoirFormation":"桂竹林層","caprockFormation":"錦水頁岩","areaKm2":32}},{"type":"Feature","id":"zone-tc-01","geometry":{"type":"Polygon","coordinates":[[[120.3,24.2],[120.48,24.22],[120.5,24.45],[120.32,24.48],[120.28,24.35],[120.3,24.2]]]},"properties":{"id":"zone-tc-01","code":"TC-01","name":"臺中港外海鹽水層","layer":"zones","kind":"saline_aquifer","status":"assessing","publishStatus":"published","setting":"offshore","region":"臺中外海","basin":"臺西盆地","capacityMtCo2":680,"depthTopM":1950,"depthBottomM":2500,"reservoirFormation":"桂竹林層","caprockFormation":"錦水頁岩","areaKm2":410}},{"type":"Feature","id":"zone-ml-01","geometry":{"type":"Polygon","coordinates":[[[120.65,24.44],[120.72,24.44],[120.73,24.5],[120.66,24.51],[120.65,24.44]]]},"properties":{"id":"zone-ml-01","code":"ML-01","name":"鐵砧山枯竭氣田","layer":"zones","kind":"depleted_field","status":"pilot","publishStatus":"published","setting":"onshore","region":"苗栗縣","basin":"西部麓山帶","capacityMtCo2":9,"depthTopM":2800,"depthBottomM":3600,"reservoirFormation":"木山層","caprockFormation":"大寮層頁岩","areaKm2":18}},{"type":"Feature","id":"zone-ml-02","geometry":{"type":"Polygon","coordinates":[[[120.83,24.61],[120.9,24.61],[120.91,24.67],[120.84,24.68],[120.83,24.61]]]},"properties":{"id":"zone-ml-02","code":"ML-02","name":"永和山氣田","layer":"zones","kind":"depleted_field","status":"potential","publishStatus":"published","setting":"onshore","region":"苗栗縣","basin":"西部麓山帶","capacityMtCo2":6,"depthTopM":2600,"depthBottomM":3200,"reservoirFormation":"木山層","caprockFormation":"打鹿頁岩","areaKm2":14}},{"type":"Feature","id":"zone-tn-01","geometry":{"type":"Polygon","coordinates":[[[119.95,22.7],[120.25,22.68],[120.32,22.95],[120.22,23.22],[119.92,23.18],[119.88,22.9],[119.95,22.7]]]},"properties":{"id":"zone-tn-01","code":"TN-01","name":"臺南盆地西南海域鹽水層","layer":"zones","kind":"saline_aquifer","status":"assessing","publishStatus":"published","setting":"offshore","region":"臺南高雄外海","basin":"臺南盆地","capacityMtCo2":1150,"depthTopM":2400,"depthBottomM":3100,"reservoirFormation":"南莊層砂岩","caprockFormation":"古亭坑層","areaKm2":960}},{"type":"Feature","id":"zone-pt-01","geometry":{"type":"Polygon","coordinates":[[[120.45,22.45],[120.6,22.45],[120.62,22.68],[120.48,22.72],[120.44,22.58],[120.45,22.45]]]},"properties":{"id":"zone-pt-01","code":"PT-01","name":"屏東平原鹽水層","layer":"zones","kind":"saline_aquifer","status":"excluded","publishStatus":"published","setting":"onshore","region":"屏東縣","basin":"屏東平原","capacityMtCo2":0,"depthTopM":600,"depthBottomM":900,"reservoirFormation":"沖積層下部砂層","caprockFormation":"無連續蓋層","areaKm2":210}}]}